{"type":"FeatureCollection","name":"boundary_review","description":"Chiefdom geometry withheld from src/groundwater/data/sl_chiefdoms_geoboundaries.geojson pending review. Derived from geoBoundaries (gbOpen, CC BY 4.0): Runfola, D. et al. (2020). PLoS ONE 15(4): e0231866.","features":[{"type":"Feature","properties":{"name":"Maforki","district":"Port Loko","reason":"detached_from_parent","distance_km":247.4,"area_km2":20.73,"vertices":11,"shares_boundary_with":[{"chiefdom":"Mafindor","district":"Kono","shared_vertices":10},{"chiefdom":"Gbane Kandor","district":"Kono","shared_vertices":1}],"proposed_owner":"Mafindor","proposed_district":"Kono","decision":"Withheld from chiefdom lookups. Shares a boundary with Mafindor (Kono), which is where it most likely belongs, but a shared boundary is not authority for reassigning ground: confirm against a gazetteer before moving it."},"geometry":{"type":"Polygon","coordinates":[[[-10.47546,8.69571],[-10.48737,8.70495],[-10.5292,8.68536],[-10.52988,8.69492],[-10.546,8.69936],[-10.53372,8.6499],[-10.52658,8.64274],[-10.52442,8.65669],[-10.51309,8.67053],[-10.48926,8.67853],[-10.48597,8.68913],[-10.47546,8.69571]]]}}]}